ORBCOMM FM24            
1 25478U 98053D   25331.11834767  .00001184  00000+0  42940-3 0  9997
2 25478  45.0070 216.3134 0003122 340.4683  19.6045 14.38594811420904
ORBCOMM FM25            
1 25479U 98053E   25331.92640731  .00001143  00000+0  41618-3 0  9999
2 25479  45.0059 210.7748 0005395 350.6567   9.4181 14.38566081421311
ORBCOMM FM26            
1 25480U 98053F   25331.07572196  .00001006  00000+0  37963-3 0  9992
2 25480  45.0058 212.4812 0007271   0.2884 359.7968 14.37546626421088
ORBCOMM FM27            
1 25481U 98053G   25331.97983261  .00001134  00000+0  41322-3 0  9997
2 25481  45.0041 210.6613 0001732   1.2265 358.8588 14.38599379421251
ORBCOMM FM28            
1 25482U 98053H   25331.79036632  .00000988  00000+0  36479-3 0  9992
2 25482  45.0034 148.8519 0004566  49.8582 310.2666 14.38727985421917
ORBCOMM FM30            
1 25980U 99065A   25331.88092650  .00001070  00000+0  39949-3 0  9999
2 25980  45.0325  34.6820 0005211 126.8965 233.2361 14.37711753358009
ORBCOMM FM31            
1 25981U 99065B   25331.86179393  .00001122  00000+0  41706-3 0  9990
2 25981  45.0241  28.2289 0003763 168.3159 191.7777 14.37639871357559
ORBCOMM FM32            
1 25982U 99065C   25331.39060355  .00001187  00000+0  44673-3 0  9993
2 25982  45.0163  48.1299 0006012 146.9195 213.2029 14.36693430358064
